{
    "links": {
        "self": "http://www.neowsapp.com/rest/v1/neo/3719241?api_key=iIulBulltgU6a56xZRHN4H3l9WmuAYTsLGpBGhQ2"
    },
    "id": "3719241",
    "neo_reference_id": "3719241",
    "name": "(2015 KH)",
    "designation": "2015 KH",
    "nasa_jpl_url": "http://ssd.jpl.nasa.gov/sbdb.cgi?sstr=3719241",
    "absolute_magnitude_h": 24.5,
    "estimated_diameter": {
        "kilometers": {
            "estimated_diameter_min": 0.0334622374,
            "estimated_diameter_max": 0.0748238376
        },
        "meters": {
            "estimated_diameter_min": 33.4622374455,
            "estimated_diameter_max": 74.8238376074
        },
        "miles": {
            "estimated_diameter_min": 0.0207924639,
            "estimated_diameter_max": 0.0464933628
        },
        "feet": {
            "estimated_diameter_min": 109.7842471007,
            "estimated_diameter_max": 245.4850393757
        }
    },
    "is_potentially_hazardous_asteroid": false,
    "close_approach_data": [
        {
            "close_approach_date": "2015-05-29",
            "close_approach_date_full": "2015-May-29 13:18",
            "epoch_date_close_approach": 1432905480000,
            "relative_velocity": {
                "kilometers_per_second": "9.8073580204",
                "kilometers_per_hour": "35306.4888733437",
                "miles_per_hour": "21938.0791557729"
            },
            "miss_distance": {
                "astronomical": "0.0368865484",
                "lunar": "14.3488673276",
                "kilometers": "5518149.072291908",
                "miles": "3428818.8370800104"
            },
            "orbiting_body": "Earth"
        }
    ],
    "orbital_data": {
        "orbit_id": "8",
        "orbit_determination_date": "2017-04-06 08:33:43",
        "first_observation_date": "2015-05-18",
        "last_observation_date": "2015-05-25",
        "data_arc_in_days": 7,
        "observations_used": 78,
        "orbit_uncertainty": "7",
        "minimum_orbit_intersection": ".0344394",
        "jupiter_tisserand_invariant": "3.498",
        "epoch_osculation": "2459000.5",
        "eccentricity": ".534205101099046",
        "semi_major_axis": "2.149367173888687",
        "inclination": "7.782827961788045",
        "ascending_node_longitude": "58.51026152304161",
        "orbital_period": "1150.970903030281",
        "perihelion_distance": "1.00116426546251",
        "perihelion_argument": "216.3258488525949",
        "aphelion_distance": "3.297570082314864",
        "perihelion_time": "2459495.814816507551",
        "mean_anomaly": "205.0757239186026",
        "mean_motion": ".3127794100200018",
        "equinox": "J2000",
        "orbit_class": {
            "orbit_class_type": "APO",
            "orbit_class_description": "Near-Earth asteroid orbits which cross the Earth’s orbit similar to that of 1862 Apollo",
            "orbit_class_range": "a (semi-major axis) > 1.0 AU; q (perihelion) < 1.017 AU"
        }
    },
    "is_sentry_object": false
}